ONEWEB-0120             
1 47266U 20100J   26194.83574269 -.00000393  00000+0 -11283-2 0  9997
2 47266  87.8959 345.3704 0002058  96.5958 263.5404 13.12442339268222
ONEWEB-0121             
1 47267U 20100K   26194.82374356 -.00000330  00000+0 -95190-3 0  9993
2 47267  87.8970 345.3612 0001540  98.4239 261.7064 13.12441665268135
ONEWEB-0122             
1 47268U 20100L   26194.81781490 -.00000248  00000+0 -72420-3 0  9993
2 47268  87.8973 345.3671 0001954  98.1580 261.9771 13.12440362268049
ONEWEB-0123             
1 47269U 20100M   26194.81358222 -.00000030  00000+0 -11793-3 0  9992
2 47269  87.8959 345.3717 0001854  92.3208 267.8132 13.12441421268185
ONEWEB-0124             
1 47270U 20100N   26194.87965941  .00000284  00000+0  75424-3 0  9992
2 47270  87.8958 345.3620 0001742  95.5805 264.5522 13.12441935268078
ONEWEB-0125             
1 47271U 20100P   26194.85763351  .00000233  00000+0  61228-3 0  9993
2 47271  87.8970 345.3526 0001611  88.7757 271.3556 13.12443708268133
ONEWEB-0126             
1 47272U 20100Q   26194.87811517  .00000320  00000+0  85396-3 0  9993
2 47272  87.8963 345.3626 0001982  95.7281 264.4073 13.12441610268203
ONEWEB-0127             
1 47273U 20100R   26194.84407748 -.00000235  00000+0 -68887-3 0  9991
2 47273  87.8960 345.3669 0002009  96.9450 263.1908 13.12443548268227
ONEWEB-0128             
1 47274U 20100S   26194.78987145  .00000336  00000+0  89988-3 0  9994
2 47274  87.8959 345.3912 0001714 104.8062 255.3257 13.12442892268239
ONEWEB-0129             
1 47275U 20100T   26194.84577302 -.00000136  00000+0 -41338-3 0  9999
2 47275  87.8964 345.3570 0002981  94.8168 265.3301 13.12442837268171
ONEWEB-0130             
1 47276U 20100U   26194.79665155  .00000379  00000+0  10178-2 0  9992
2 47276  87.8966 345.3619 0001917  98.8318 261.3028 13.12441549268134
ONEWEB-0131             
1 47277U 20100V   26194.79326670  .00000189  00000+0  49008-3 0  9993
2 47277  87.8955 345.3769 0001678  97.0404 263.0916 13.12440440268178
ONEWEB-0132             
1 47278U 20100W   26194.82204984 -.00000324  00000+0 -93708-3 0  9990
2 47278  87.8961 345.3747 0001832  98.8982 261.2354 13.12441471268074
ONEWEB-0133             
1 47279U 20100X   26194.83884753 -.00000364  00000+0 -10479-2 0  9997
2 47279  87.8973 345.3506 0001809 101.0044 259.1288 13.12444286268238
ONEWEB-0134             
1 47280U 20100Y   26194.80850277  .00000132  00000+0  33028-3 0  9997
2 47280  87.8974 345.3538 0002036 102.8407 257.2949 13.12441108268201
ONEWEB-0135             
1 47281U 20100Z   26194.85593762  .00000131  00000+0  32794-3 0  9994
2 47281  87.8964 345.3638 0001960 104.9349 255.1997 13.12444114268238
