{"fetched_at":"2026-07-14T06:34:21.837Z","source":"https://celestrak.org/NORAD/elements/gp.php?GROUP=oneweb&FORMAT=JSON","constellation":"oneweb","records":[{"OBJECT_NAME":"ONEWEB-0120","OBJECT_ID":"2020-100J","EPOCH":"2026-07-13T20:03:28.168416","CLASSIFICATION_TYPE":"U","MEAN_MOTION":13.12442339,"ECCENTRICITY":0.0002058,"INCLINATION":87.8959,"RA_OF_ASC_NODE":345.3704,"ARG_OF_PERICENTER":96.5958,"MEAN_ANOMALY":263.5404,"EPHEMERIS_TYPE":0,"NORAD_CAT_ID":47266,"ELEMENT_SET_NO":999,"REV_AT_EPOCH":26822,"BSTAR":-0.0011283,"MEAN_MOTION_DOT":-0.00000393,"MEAN_MOTION_DDOT":0},{"OBJECT_NAME":"ONEWEB-0121","OBJECT_ID":"2020-100K","EPOCH":"2026-07-13T19:46:11.443584","CLASSIFICATION_TYPE":"U","MEAN_MOTION":13.12441665,"ECCENTRICITY":0.000154,"INCLINATION":87.897,"RA_OF_ASC_NODE":345.3612,"ARG_OF_PERICENTER":98.4239,"MEAN_ANOMALY":261.7064,"EPHEMERIS_TYPE":0,"NORAD_CAT_ID":47267,"ELEMENT_SET_NO":999,"REV_AT_EPOCH":26813,"BSTAR":-0.0009519,"MEAN_MOTION_DOT":-0.0000033,"MEAN_MOTION_DDOT":0},{"OBJECT_NAME":"ONEWEB-0122","OBJECT_ID":"2020-100L","EPOCH":"2026-07-13T19:37:39.207360","CLASSIFICATION_TYPE":"U","MEAN_MOTION":13.12440362,"ECCENTRICITY":0.0001954,"INCLINATION":87.8973,"RA_OF_ASC_NODE":345.3671,"ARG_OF_PERICENTER":98.158,"MEAN_ANOMALY":261.9771,"EPHEMERIS_TYPE":0,"NORAD_CAT_ID":47268,"ELEMENT_SET_NO":999,"REV_AT_EPOCH":26804,"BSTAR":-0.0007242,"MEAN_MOTION_DOT":-0.00000248,"MEAN_MOTION_DDOT":0},{"OBJECT_NAME":"ONEWEB-0123","OBJECT_ID":"2020-100M","EPOCH":"2026-07-13T19:31:33.503808","CLASSIFICATION_TYPE":"U","MEAN_MOTION":13.12441421,"ECCENTRICITY":0.0001854,"INCLINATION":87.8959,"RA_OF_ASC_NODE":345.3717,"ARG_OF_PERICENTER":92.3208,"MEAN_ANOMALY":267.8132,"EPHEMERIS_TYPE":0,"NORAD_CAT_ID":47269,"ELEMENT_SET_NO":999,"REV_AT_EPOCH":26818,"BSTAR":-0.00011793,"MEAN_MOTION_DOT":-3e-7,"MEAN_MOTION_DDOT":0},{"OBJECT_NAME":"ONEWEB-0124","OBJECT_ID":"2020-100N","EPOCH":"2026-07-13T21:06:42.573024","CLASSIFICATION_TYPE":"U","MEAN_MOTION":13.12441935,"ECCENTRICITY":0.0001742,"INCLINATION":87.8958,"RA_OF_ASC_NODE":345.362,"ARG_OF_PERICENTER":95.5805,"MEAN_ANOMALY":264.5522,"EPHEMERIS_TYPE":0,"NORAD_CAT_ID":47270,"ELEMENT_SET_NO":999,"REV_AT_EPOCH":26807,"BSTAR":0.00075424,"MEAN_MOTION_DOT":0.00000284,"MEAN_MOTION_DDOT":0},{"OBJECT_NAME":"ONEWEB-0125","OBJECT_ID":"2020-100P","EPOCH":"2026-07-13T20:34:59.535264","CLASSIFICATION_TYPE":"U","MEAN_MOTION":13.12443708,"ECCENTRICITY":0.0001611,"INCLINATION":87.897,"RA_OF_ASC_NODE":345.3526,"ARG_OF_PERICENTER":88.7757,"MEAN_ANOMALY":271.3556,"EPHEMERIS_TYPE":0,"NORAD_CAT_ID":47271,"ELEMENT_SET_NO":999,"REV_AT_EPOCH":26813,"BSTAR":0.00061228,"MEAN_MOTION_DOT":0.00000233,"MEAN_MOTION_DDOT":0},{"OBJECT_NAME":"ONEWEB-0126","OBJECT_ID":"2020-100Q","EPOCH":"2026-07-13T21:04:29.150688","CLASSIFICATION_TYPE":"U","MEAN_MOTION":13.1244161,"ECCENTRICITY":0.0001982,"INCLINATION":87.8963,"RA_OF_ASC_NODE":345.3626,"ARG_OF_PERICENTER":95.7281,"MEAN_ANOMALY":264.4073,"EPHEMERIS_TYPE":0,"NORAD_CAT_ID":47272,"ELEMENT_SET_NO":999,"REV_AT_EPOCH":26820,"BSTAR":0.00085396,"MEAN_MOTION_DOT":0.0000032,"MEAN_MOTION_DDOT":0},{"OBJECT_NAME":"ONEWEB-0127","OBJECT_ID":"2020-100R","EPOCH":"2026-07-13T20:15:28.294272","CLASSIFICATION_TYPE":"U","MEAN_MOTION":13.12443548,"ECCENTRICITY":0.0002009,"INCLINATION":87.896,"RA_OF_ASC_NODE":345.3669,"ARG_OF_PERICENTER":96.945,"MEAN_ANOMALY":263.1908,"EPHEMERIS_TYPE":0,"NORAD_CAT_ID":47273,"ELEMENT_SET_NO":999,"REV_AT_EPOCH":26822,"BSTAR":-0.00068887,"MEAN_MOTION_DOT":-0.00000235,"MEAN_MOTION_DDOT":0},{"OBJECT_NAME":"ONEWEB-0128","OBJECT_ID":"2020-100S","EPOCH":"2026-07-13T18:57:24.893280","CLASSIFICATION_TYPE":"U","MEAN_MOTION":13.12442892,"ECCENTRICITY":0.0001714,"INCLINATION":87.8959,"RA_OF_ASC_NODE":345.3912,"ARG_OF_PERICENTER":104.8062,"MEAN_ANOMALY":255.3257,"EPHEMERIS_TYPE":0,"NORAD_CAT_ID":47274,"ELEMENT_SET_NO":999,"REV_AT_EPOCH":26823,"BSTAR":0.00089988,"MEAN_MOTION_DOT":0.00000336,"MEAN_MOTION_DDOT":0},{"OBJECT_NAME":"ONEWEB-0129","OBJECT_ID":"2020-100T","EPOCH":"2026-07-13T20:17:54.788928","CLASSIFICATION_TYPE":"U","MEAN_MOTION":13.12442837,"ECCENTRICITY":0.0002981,"INCLINATION":87.8964,"RA_OF_ASC_NODE":345.357,"ARG_OF_PERICENTER":94.8168,"MEAN_ANOMALY":265.3301,"EPHEMERIS_TYPE":0,"NORAD_CAT_ID":47275,"ELEMENT_SET_NO":999,"REV_AT_EPOCH":26817,"BSTAR":-0.00041338,"MEAN_MOTION_DOT":-0.00000136,"MEAN_MOTION_DDOT":0},{"OBJECT_NAME":"ONEWEB-0130","OBJECT_ID":"2020-100U","EPOCH":"2026-07-13T19:07:10.693920","CLASSIFICATION_TYPE":"U","MEAN_MOTION":13.12441549,"ECCENTRICITY":0.0001917,"INCLINATION":87.8966,"RA_OF_ASC_NODE":345.3619,"ARG_OF_PERICENTER":98.8318,"MEAN_ANOMALY":261.3028,"EPHEMERIS_TYPE":0,"NORAD_CAT_ID":47276,"ELEMENT_SET_NO":999,"REV_AT_EPOCH":26813,"BSTAR":0.0010178,"MEAN_MOTION_DOT":0.00000379,"MEAN_MOTION_DDOT":0},{"OBJECT_NAME":"ONEWEB-0131","OBJECT_ID":"2020-100V","EPOCH":"2026-07-13T19:02:18.242880","CLASSIFICATION_TYPE":"U","MEAN_MOTION":13.1244044,"ECCENTRICITY":0.0001678,"INCLINATION":87.8955,"RA_OF_ASC_NODE":345.3769,"ARG_OF_PERICENTER":97.0404,"MEAN_ANOMALY":263.0916,"EPHEMERIS_TYPE":0,"NORAD_CAT_ID":47277,"ELEMENT_SET_NO":999,"REV_AT_EPOCH":26817,"BSTAR":0.00049008,"MEAN_MOTION_DOT":0.00000189,"MEAN_MOTION_DDOT":0},{"OBJECT_NAME":"ONEWEB-0132","OBJECT_ID":"2020-100W","EPOCH":"2026-07-13T19:43:45.106176","CLASSIFICATION_TYPE":"U","MEAN_MOTION":13.12441471,"ECCENTRICITY":0.0001832,"INCLINATION":87.8961,"RA_OF_ASC_NODE":345.3747,"ARG_OF_PERICENTER":98.8982,"MEAN_ANOMALY":261.2354,"EPHEMERIS_TYPE":0,"NORAD_CAT_ID":47278,"ELEMENT_SET_NO":999,"REV_AT_EPOCH":26807,"BSTAR":-0.00093708,"MEAN_MOTION_DOT":-0.00000324,"MEAN_MOTION_DDOT":0},{"OBJECT_NAME":"ONEWEB-0133","OBJECT_ID":"2020-100X","EPOCH":"2026-07-13T20:07:56.426592","CLASSIFICATION_TYPE":"U","MEAN_MOTION":13.12444286,"ECCENTRICITY":0.0001809,"INCLINATION":87.8973,"RA_OF_ASC_NODE":345.3506,"ARG_OF_PERICENTER":101.0044,"MEAN_ANOMALY":259.1288,"EPHEMERIS_TYPE":0,"NORAD_CAT_ID":47279,"ELEMENT_SET_NO":999,"REV_AT_EPOCH":26823,"BSTAR":-0.0010479,"MEAN_MOTION_DOT":-0.00000364,"MEAN_MOTION_DDOT":0},{"OBJECT_NAME":"ONEWEB-0134","OBJECT_ID":"2020-100Y","EPOCH":"2026-07-13T19:24:14.639328","CLASSIFICATION_TYPE":"U","MEAN_MOTION":13.12441108,"ECCENTRICITY":0.0002036,"INCLINATION":87.8974,"RA_OF_ASC_NODE":345.3538,"ARG_OF_PERICENTER":102.8407,"MEAN_ANOMALY":257.2949,"EPHEMERIS_TYPE":0,"NORAD_CAT_ID":47280,"ELEMENT_SET_NO":999,"REV_AT_EPOCH":26820,"BSTAR":0.00033028,"MEAN_MOTION_DOT":0.00000132,"MEAN_MOTION_DDOT":0},{"OBJECT_NAME":"ONEWEB-0135","OBJECT_ID":"2020-100Z","EPOCH":"2026-07-13T20:32:33.010368","CLASSIFICATION_TYPE":"U","MEAN_MOTION":13.12444114,"ECCENTRICITY":0.000196,"INCLINATION":87.8964,"RA_OF_ASC_NODE":345.3638,"ARG_OF_PERICENTER":104.9349,"MEAN_ANOMALY":255.1997,"EPHEMERIS_TYPE":0,"NORAD_CAT_ID":47281,"ELEMENT_SET_NO":999,"REV_AT_EPOCH":26823,"BSTAR":0.00032794,"MEAN_MOTION_DOT":0.00000131,"MEAN_MOTION_DDOT":0}]}
